SAR-LUPE 2              
1 31797U 07030A   26157.81893707  .00017992  00000+0  34026-3 0  9996
2 31797  98.1026 260.9822 0008827 152.7232 207.4482 15.48440259 55336
SAPPHIRE                
1 39088U 13009C   26157.77432740  .00000117  00000+0  55758-4 0  9998
2 39088  98.4259 337.4777 0009987 281.4053  78.6011 14.35237689695080
PRAETORIAN SDA_602      
1 65565U 25203A   26157.61630329  .00000045  00000+0  29480-4 0  9995
2 65565  81.3038  20.5618 0005264 215.0347 145.0464 13.84341989 37232
PRAETORIAN SDA_603      
1 65566U 25203B   26157.85654579  .00000176  00000+0  14770-3 0  9995
2 65566  81.3044  20.2482 0008942 217.3906 142.6630 13.83903176 37271
PRAETORIAN SDA_604      
1 65567U 25203C   26157.58048782  .00000123  00000+0  10200-3 0  9995
2 65567  81.3060  20.9000 0004774 223.0398 137.0385 13.83046683 37211
PRAETORIAN SDA_605      
1 65568U 25203D   26157.62110487  .00000074  00000+0  56653-4 0  9991
2 65568  81.3025  20.5357 0007549 213.3882 146.6799 13.83433600 37233
PRAETORIAN SDA_606      
1 65569U 25203E   26157.60344758  .00000080  00000+0  62106-4 0  9997
2 65569  81.3062  20.7694 0005189 211.7236 148.3608 13.83406580 37228
PRAETORIAN SDA_607      
1 65570U 25203F   26157.61818109  .00000120  00000+0  96989-4 0  9997
2 65570  81.3045  20.4350 0008154 218.2045 141.8535 13.84283938 37242
PRAETORIAN SDA_608      
1 65571U 25203G   26157.59201355  .00000090  00000+0  70629-4 0  9993
2 65571  81.3013  20.6171 0005284 222.0975 137.9776 13.83816104 37224
PRAETORIAN SDA_609      
1 65572U 25203H   26157.60021236  .00000143  00000+0  11766-3 0  9999
2 65572  81.3058  20.5947 0006252 214.7627 145.3122 13.84284579 37237
PRAETORIAN SDA_610      
1 65573U 25203J   26157.86124299  .00000052  00000+0  36653-4 0  9993
2 65573  81.3014  20.3261 0005958 218.6804 141.3926 13.83851187 37264
PRAETORIAN SDA_611      
1 65574U 25203K   26157.85797567  .00000050  00000+0  34817-4 0  9995
2 65574  81.3016  20.4855 0004923 225.6060 134.4694 13.83307374 37258
PRAETORIAN SDA_612      
1 65575U 25203L   26157.86047785  .00000140  00000+0  11372-3 0  9997
2 65575  81.3037  20.0956 0008630 216.3907 143.6664 13.85037729 37284
PRAETORIAN SDA_613      
1 65576U 25203M   26157.86066088  .00000048  00000+0  33273-4 0  9997
2 65576  81.3006  20.4729 0005045 213.8062 146.2772 13.82764291 37258
PRAETORIAN SDA_614      
1 65577U 25203N   26157.84771176  .00000069  00000+0  50739-4 0  9996
2 65577  81.3020  20.1826 0006508 213.3337 146.7411 13.84777737 37284
PRAETORIAN SDA_615      
1 65578U 25203P   26157.60523235  .00000103  00000+0  81325-4 0  9996
2 65578  81.3031  20.3649 0008417 215.6782 144.3813 13.84435584 37249
PRAETORIAN SDA_616      
1 65579U 25203Q   26157.85688039  .00000177  00000+0  15019-3 0  9995
2 65579  81.3070  20.6256 0004802 223.5468 136.5309 13.83266502 37258
PRAETORIAN SDA_617      
1 65580U 25203R   26157.58825269  .00000087  00000+0  68725-4 0  9998
2 65580  81.3044  20.7061 0006735 214.4040 145.6681 13.83150073 37224
PRAETORIAN SDA_618      
1 65581U 25203S   26157.86209933  .00000123  00000+0  98503-4 0  9992
2 65581  81.3029  20.0605 0009131 217.5224 142.5297 13.84668238 37289
PRAETORIAN SDA_619      
1 65582U 25203T   26157.60239110  .00000134  00000+0  11027-3 0  9992
2 65582  81.3053  20.5814 0007558 216.0250 144.0398 13.83804837 37867
PRAETORIAN SDA_620      
1 65583U 25203U   26157.62894728  .00000150  00000+0  12497-3 0  9997
2 65583  81.3039  20.5764 0007057 210.9775 149.0966 13.83617097 37232
PRAETORIAN SDA_621      
1 65584U 25203V   26157.60413090  .00000090  00000+0  70724-4 0  9996
2 65584  81.3027  20.5212 0006823 208.6305 151.4478 13.83800537 37239
PRAETORIAN SDA_601      
1 65585U 25203W   26157.56991922  .00000276  00000+0  24081-3 0  9997
2 65585  81.3048  20.8375 0004801 227.7790 132.2959 13.83166728 37216
